OBJECT_NAME,OBJECT_ID,EPOCH,MEAN_MOTION,ECCENTRICITY,INCLINATION,RA_OF_ASC_NODE,ARG_OF_PERICENTER,MEAN_ANOMALY,EPHEMERIS_TYPE,CLASSIFICATION_TYPE,NORAD_CAT_ID,ELEMENT_SET_NO,REV_AT_EPOCH,BSTAR,MEAN_MOTION_DOT,MEAN_MOTION_DDOT
ASTRA 1N,2011-041A,2026-06-05T06:45:48.694176,1.00271675,.00064435,0.0755,30.4046,59.9605,284.0187,0,U,37775,999,4440,0,.132E-5,0
BSAT-3C (JCSAT-110R),2011-041B,2026-06-04T17:05:15.492768,1.00269799,.0000589,0.0259,309.4229,193.3274,116.6774,0,U,37776,999,5034,0,-.338E-5,0
PAKSAT-1R,2011-042A,2026-06-05T06:51:10.680192,1.00273689,.00034526,0.6575,84.7185,343.1843,326.5867,0,U,37779,999,5435,0,.166E-5,0
SES-2,2011-049A,2026-06-05T06:15:25.511616,1.00270325,.00029791,0.0377,113.7259,321.3478,185.4784,0,U,37809,999,5384,0,-.183E-5,0
ARABSAT-5C,2011-049B,2026-06-05T06:46:03.669888,1.00272562,.00032157,0.0566,22.4949,69.2436,283.4815,0,U,37810,999,5391,0,.136E-5,0
EUTELSAT 7 WEST A,2011-051A,2026-06-04T23:47:35.169792,1.00271133,.00043531,0.0611,346.0207,101.3038,155.6899,0,U,37816,999,5375,0,-.48E-6,0
QUETZSAT 1,2011-054A,2026-06-05T05:59:46.892256,1.00270480,.00028897,0.0400,63.8927,14.2949,188.4430,0,U,37826,999,4975,0,-.229E-5,0
INTELSAT 18 (IS-18),2011-056A,2026-06-05T05:25:38.860608,1.00271753,.00022362,0.0133,300.1072,146.3497,68.6183,0,U,37834,999,5369,0,.65E-6,0
EUTELSAT 16A,2011-057A,2026-06-05T06:44:56.277888,1.00269616,.0005854,0.0428,344.1750,92.2685,294.5036,0,U,37836,999,721,0,.116E-5,0
VIASAT-1,2011-059A,2026-06-05T00:45:30.002400,1.00272074,.00024483,0.0176,320.3026,114.7070,74.7418,0,U,37843,999,4720,0,-.12E-6,0
ASIASAT 7,2011-069A,2026-06-05T07:10:22.020672,1.00271435,.00016733,0.0194,313.9694,110.1842,42.7019,0,U,37933,999,4474,0,-.322E-5,0
BEIDOU-2 IGSO-5,2011-073A,2026-06-05T07:06:24.221088,1.00275849,.01134324,47.7011,271.6946,221.7167,318.6629,0,U,37948,999,5301,0,-.159E-5,0
LUCH-5A,2011-074B,2026-06-05T02:19:57.178848,1.00269911,.00024819,8.7230,73.9855,9.1974,12.3602,0,U,37951,999,5293,0,-.39E-6,0
NIGCOMSAT 1R,2011-077A,2026-06-05T06:52:33.047904,1.00270764,.00027356,0.0263,210.2302,146.1966,42.9225,0,U,38014,999,5283,0,.157E-5,0
WGS F4 (USA 233),2012-003A,2026-06-04T21:36:21.822912,1.00270873,.0000174,0.0168,336.4588,330.3130,359.0853,0,U,38070,999,4402,0,0,0
SES-4,2012-007A,2026-06-04T10:02:04.085376,1.00271340,.00024364,0.0283,31.0711,50.9462,299.3641,0,U,38087,999,5209,0,-.156E-5,0
BEIDOU-2 G5,2012-008A,2026-06-05T03:31:48.160416,1.00269511,.00096131,3.5438,69.7718,276.3406,19.1300,0,U,38091,999,5224,0,.69E-6,0
MUOS-1,2012-009A,2026-06-05T06:11:48.359040,1.00270875,.00589084,5.4527,47.1656,0.8775,198.6462,0,U,38093,999,5232,0,-.116E-5,0
INTELSAT 22 (IS-22),2012-011A,2026-06-05T05:15:38.798784,1.00273183,.00016057,0.0124,43.2010,18.6444,342.8064,0,U,38098,999,706,0,-.47E-6,0
APSTAR-7,2012-013A,2026-06-05T03:36:55.168992,1.00271537,.00030118,0.0215,50.9502,31.9870,301.3799,0,U,38107,999,5168,0,-.89E-6,0
YAHSAT 1B,2012-016A,2026-06-05T00:03:13.916160,1.00271155,.00027736,0.0905,91.0834,2.7285,208.0398,0,U,38245,999,4548,0,.139E-5,0
AEHF-2 (USA 235),2012-019A,2026-06-05T01:27:34.244928,1.00270638,.00023016,6.6237,57.5779,6.4666,194.8426,0,U,38254,999,686,0,-.125E-5,0
JCSAT-13,2012-023A,2026-06-04T17:34:21.215136,1.00270076,.0003007,0.0332,72.2498,20.0683,188.4436,0,U,38331,999,5141,0,-.344E-5,0
VINASAT-2,2012-023B,2026-06-05T05:35:21.257088,1.00270048,.00026202,0.0137,357.6977,91.9752,19.6809,0,U,38332,999,4654,0,-.317E-5,0
NIMIQ 6,2012-026A,2026-06-05T05:54:50.577408,1.00272603,.00029159,0.0104,330.3840,102.5721,178.3371,0,U,38342,999,5029,0,-.162E-5,0
ZHONGXING-2A,2012-028A,2026-06-05T04:27:21.852576,1.00272293,.00036532,1.4233,84.0383,31.2974,303.3656,0,U,38352,999,5117,0,-.281E-5,0
INTELSAT 19 (IS-19),2012-030A,2026-06-05T04:02:22.727904,1.00272087,.00031886,0.0183,346.7603,94.0347,39.4115,0,U,38356,999,5033,0,-.44E-6,0
ECHOSTAR 17,2012-035A,2026-06-04T14:41:57.048576,1.00270627,.0001986,0.0182,346.4449,87.1972,292.8078,0,U,38551,999,5093,0,0,0
METEOSAT-10 (MSG-3),2012-035B,2026-06-05T01:32:24.238752,1.00275627,.00018037,4.6426,61.0733,337.4560,238.2428,0,U,38552,999,5073,0,.6E-7,0
SES-5,2012-036A,2026-06-04T23:51:04.834944,1.00271985,.00021513,0.0499,310.6232,122.2129,183.3480,0,U,38652,999,4433,0,.46E-6,0
INTELSAT 20 (IS-20),2012-043A,2026-06-04T19:57:21.472992,1.00271341,.0001553,0.0098,81.5762,96.2799,83.2508,0,U,38740,999,5062,0,-.12E-6,0
